IRIDIUM 33 DEB          
1 35628U 97051RA  26073.02592739  .00007501  00000+0  12653-2 0  9992
2 35628  86.3586 328.3235 0013071  26.1262 334.0610 14.69309444877866
IRIDIUM 33 DEB          
1 35631U 97051RD  26071.75106679  .00001443  00000+0  38556-3 0  9998
2 35631  86.3717 342.2264 0016479 173.7818 241.5254 14.47642116884994
IRIDIUM 33 DEB          
1 35680U 97051RJ  26073.48407076  .00006962  00000+0  27642-2 0  9993
2 35680  86.1044 340.8649 0153679 348.2889 190.5027 14.22406186620044
IRIDIUM 33 DEB          
1 35744U 97051RX  26073.31586016  .00006805  00000+0  10663-2 0  9999
2 35744  86.3245 284.0090 0018816 240.6181 119.3158 14.72464995886788
IRIDIUM 33 DEB          
1 35797U 97051SF  26073.33174039  .00015572  00000+0  17821-2 0  9991
2 35797  86.3322 287.7871 0010384 189.5842 170.5186 14.85854789886997
IRIDIUM 33 DEB          
1 35806U 97051SQ  26073.49051697  .00006250  00000+0  13383-2 0  9995
2 35806  86.3485 340.2082 0015051 112.5295 247.7509 14.58537058876612
IRIDIUM 33 DEB          
1 35809U 97051ST  26073.32815052  .00010621  00000+0  14655-2 0  9993
2 35809  86.3243 293.5650 0010408 295.5131  64.5012 14.78043742881591
IRIDIUM 33 DEB          
1 35846U 97051SW  26071.82377467  .00002493  00000+0  72951-3 0  9992
2 35846  86.3786  20.3748 0015516 234.5380 125.4373 14.43577581726288
IRIDIUM 33 DEB          
1 35848U 97051SY  26072.47302180  .00012904  00000+0  16479-2 0  9996
2 35848  86.3922 335.2476 0005068 249.6875 110.3803 14.81342692680325
IRIDIUM 33 DEB          
1 35850U 97051TA  26072.39970362  .00009515  00000+0  12120-2 0  9996
2 35850  86.3480 302.9254 0007098 243.0294 117.0203 14.81426733726980
IRIDIUM 33 DEB          
1 35915U 97051TY  26072.88928555  .00012849  00000+0  15483-2 0  9998
2 35915  86.3412 301.2105 0008531 236.1529 123.8883 14.83743381 94363
IRIDIUM 33 DEB          
1 35918U 97051UB  26073.20528161  .00004690  00000+0  11490-2 0  9996
2 35918  86.4010  36.5091 0023728 222.0278 201.4734 14.52133613865342
IRIDIUM 33 DEB          
1 35929U 97051UN  26067.28248198  .00062834  00000+0  38635-2 0  9992
2 35929  86.3393 271.8840 0015258  69.7211 290.5665 15.09674475890670
IRIDIUM 33 DEB          
1 36011U 97051US  26072.53408742  .00001845  00000+0  55963-3 0  9991
2 36011  86.3460 356.4266 0016451 286.0022 199.7841 14.41690082658484
IRIDIUM 33 DEB          
1 36012U 97051UT  26071.50572001  .00004514  00000+0  16495-2 0  9990
2 36012  86.4393 271.2866 0216393 336.4342  22.7043 14.20642736667583
IRIDIUM 33 DEB          
1 36028U 97051VK  26067.82720666  .00035903  00000+0  28451-2 0  9990
2 36028  86.3190 266.0445 0016847  92.2879 268.0282 15.00290565884133
